ONEWEB-0120             
1 47266U 20100J   26148.10237474  .00000468  00000+0  12666-2 0  9997
2 47266  87.8947 354.6668 0001629  90.4292 269.7024 13.12442501262094
ONEWEB-0121             
1 47267U 20100K   26148.09036908  .00000344  00000+0  91990-3 0  9996
2 47267  87.8958 354.6532 0001992  78.7060 281.4292 13.12442824262009
ONEWEB-0122             
1 47268U 20100L   26148.08443853  .00000174  00000+0  44801-3 0  9997
2 47268  87.8961 354.6583 0001586  86.9736 273.1574 13.12442878261919
ONEWEB-0123             
1 47269U 20100M   26148.08020598 -.00000038  00000+0 -14018-3 0  9993
2 47269  87.8947 354.6689 0001859  89.1111 271.0231 13.12443790262053
ONEWEB-0124             
1 47270U 20100N   26148.07003730 -.00000329  00000+0 -94854-3 0  9992
2 47270  87.8944 354.6742 0001863  84.2173 275.9168 13.12443463261936
ONEWEB-0125             
1 47271U 20100P   26148.27672759 -.00000136  00000+0 -41380-3 0  9990
2 47271  87.8958 354.6144 0002099  85.3062 274.8306 13.12442139262021
ONEWEB-0126             
1 47272U 20100Q   26148.06847469 -.00000412  00000+0 -11806-2 0  9996
2 47272  87.8950 354.6725 0001748  90.7128 269.4201 13.12442632262068
ONEWEB-0127             
1 47273U 20100R   26148.11069804  .00000313  00000+0  83595-3 0  9995
2 47273  87.8946 354.6642 0001674  89.5548 270.5772 13.12441808262095
ONEWEB-0128             
1 47274U 20100S   26148.28517830 -.00000337  00000+0 -97180-3 0  9994
2 47274  87.8945 354.6432 0001671  76.6843 283.4472 13.12441272262134
ONEWEB-0129             
1 47275U 20100T   26148.26485941  .00000278  00000+0  73627-3 0  9992
2 47275  87.8956 354.6190 0001370 126.2207 233.9048 13.12440887262062
ONEWEB-0130             
1 47276U 20100U   26148.13949294 -.00000394  00000+0 -11303-2 0  9998
2 47276  87.8958 354.6389 0001664  86.4565 273.6753 13.12442464262017
ONEWEB-0131             
1 47277U 20100V   26148.28857461 -.00000339  00000+0 -97818-3 0  9994
2 47277  87.8944 354.6296 0001732  85.6690 274.4636 13.12442772262073
ONEWEB-0132             
1 47278U 20100W   26148.08868080  .00000202  00000+0  52623-3 0  9994
2 47278  87.8949 354.6707 0001756  83.7670 276.3659 13.12443293261949
ONEWEB-0133             
1 47279U 20100X   26148.10548334  .00000406  00000+0  10943-2 0  9999
2 47279  87.8962 354.6413 0001724  81.2553 278.8771 13.12442623262104
ONEWEB-0134             
1 47280U 20100Y   26148.07511659 -.00000150  00000+0 -45172-3 0  9998
2 47280  87.8962 354.6442 0001491  84.9783 275.1516 13.12444341262076
ONEWEB-0135             
1 47281U 20100Z   26148.27502993 -.00000030  00000+0 -11878-3 0  9995
2 47281  87.8948 354.6301 0001505  80.8216 279.3083 13.12442080262126
