[{"OBJECT_NAME":"ONEWEB-0120","OBJECT_ID":"2020-100J","EPOCH":"2026-05-28T02:27:25.177536","MEAN_MOTION":13.12442501,"ECCENTRICITY":0.0001629,"INCLINATION":87.8947,"RA_OF_ASC_NODE":354.6668,"ARG_OF_PERICENTER":90.4292,"MEAN_ANOMALY":269.7024,"EPHEMERIS_TYPE":0,"CLASSIFICATION_TYPE":"U","NORAD_CAT_ID":47266,"ELEMENT_SET_NO":999,"REV_AT_EPOCH":26209,"BSTAR":0.0012665999999999999,"MEAN_MOTION_DOT":4.68e-06,"MEAN_MOTION_DDOT":0.0},{"OBJECT_NAME":"ONEWEB-0121","OBJECT_ID":"2020-100K","EPOCH":"2026-05-28T02:10:07.888512","MEAN_MOTION":13.12442824,"ECCENTRICITY":0.0001992,"INCLINATION":87.8958,"RA_OF_ASC_NODE":354.6532,"ARG_OF_PERICENTER":78.706,"MEAN_ANOMALY":281.4292,"EPHEMERIS_TYPE":0,"CLASSIFICATION_TYPE":"U","NORAD_CAT_ID":47267,"ELEMENT_SET_NO":999,"REV_AT_EPOCH":26200,"BSTAR":0.0009199000000000001,"MEAN_MOTION_DOT":3.44e-06,"MEAN_MOTION_DDOT":0.0},{"OBJECT_NAME":"ONEWEB-0122","OBJECT_ID":"2020-100L","EPOCH":"2026-05-28T02:01:35.488992","MEAN_MOTION":13.12442878,"ECCENTRICITY":0.0001586,"INCLINATION":87.8961,"RA_OF_ASC_NODE":354.6583,"ARG_OF_PERICENTER":86.9736,"MEAN_ANOMALY":273.1574,"EPHEMERIS_TYPE":0,"CLASSIFICATION_TYPE":"U","NORAD_CAT_ID":47268,"ELEMENT_SET_NO":999,"REV_AT_EPOCH":26191,"BSTAR":0.00044801000000000004,"MEAN_MOTION_DOT":1.74e-06,"MEAN_MOTION_DDOT":0.0},{"OBJECT_NAME":"ONEWEB-0123","OBJECT_ID":"2020-100M","EPOCH":"2026-05-28T01:55:29.796672","MEAN_MOTION":13.1244379,"ECCENTRICITY":0.0001859,"INCLINATION":87.8947,"RA_OF_ASC_NODE":354.6689,"ARG_OF_PERICENTER":89.1111,"MEAN_ANOMALY":271.0231,"EPHEMERIS_TYPE":0,"CLASSIFICATION_TYPE":"U","NORAD_CAT_ID":47269,"ELEMENT_SET_NO":999,"REV_AT_EPOCH":26205,"BSTAR":-0.00014018,"MEAN_MOTION_DOT":-3.8e-07,"MEAN_MOTION_DDOT":0.0},{"OBJECT_NAME":"ONEWEB-0124","OBJECT_ID":"2020-100N","EPOCH":"2026-05-28T01:40:51.222720","MEAN_MOTION":13.12443463,"ECCENTRICITY":0.0001863,"INCLINATION":87.8944,"RA_OF_ASC_NODE":354.6742,"ARG_OF_PERICENTER":84.2173,"MEAN_ANOMALY":275.9168,"EPHEMERIS_TYPE":0,"CLASSIFICATION_TYPE":"U","NORAD_CAT_ID":47270,"ELEMENT_SET_NO":999,"REV_AT_EPOCH":26193,"BSTAR":-0.0009485400000000001,"MEAN_MOTION_DOT":-3.29e-06,"MEAN_MOTION_DDOT":0.0},{"OBJECT_NAME":"ONEWEB-0125","OBJECT_ID":"2020-100P","EPOCH":"2026-05-28T06:38:29.263776","MEAN_MOTION":13.12442139,"ECCENTRICITY":0.0002099,"INCLINATION":87.8958,"RA_OF_ASC_NODE":354.6144,"ARG_OF_PERICENTER":85.3062,"MEAN_ANOMALY":274.8306,"EPHEMERIS_TYPE":0,"CLASSIFICATION_TYPE":"U","NORAD_CAT_ID":47271,"ELEMENT_SET_NO":999,"REV_AT_EPOCH":26202,"BSTAR":-0.00041380000000000003,"MEAN_MOTION_DOT":-1.36e-06,"MEAN_MOTION_DDOT":0.0},{"OBJECT_NAME":"ONEWEB-0126","OBJECT_ID":"2020-100Q","EPOCH":"2026-05-28T01:38:36.213216","MEAN_MOTION":13.12442632,"ECCENTRICITY":0.0001748,"INCLINATION":87.895,"RA_OF_ASC_NODE":354.6725,"ARG_OF_PERICENTER":90.7128,"MEAN_ANOMALY":269.4201,"EPHEMERIS_TYPE":0,"CLASSIFICATION_TYPE":"U","NORAD_CAT_ID":47272,"ELEMENT_SET_NO":999,"REV_AT_EPOCH":26206,"BSTAR":-0.0011806,"MEAN_MOTION_DOT":-4.12e-06,"MEAN_MOTION_DDOT":0.0},{"OBJECT_NAME":"ONEWEB-0127","OBJECT_ID":"2020-100R","EPOCH":"2026-05-28T02:39:24.310656","MEAN_MOTION":13.12441808,"ECCENTRICITY":0.0001674,"INCLINATION":87.8946,"RA_OF_ASC_NODE":354.6642,"ARG_OF_PERICENTER":89.5548,"MEAN_ANOMALY":270.5772,"EPHEMERIS_TYPE":0,"CLASSIFICATION_TYPE":"U","NORAD_CAT_ID":47273,"ELEMENT_SET_NO":999,"REV_AT_EPOCH":26209,"BSTAR":0.00083595,"MEAN_MOTION_DOT":3.13e-06,"MEAN_MOTION_DDOT":0.0},{"OBJECT_NAME":"ONEWEB-0128","OBJECT_ID":"2020-100S","EPOCH":"2026-05-28T06:50:39.405120","MEAN_MOTION":13.12441272,"ECCENTRICITY":0.0001671,"INCLINATION":87.8945,"RA_OF_ASC_NODE":354.6432,"ARG_OF_PERICENTER":76.6843,"MEAN_ANOMALY":283.4472,"EPHEMERIS_TYPE":0,"CLASSIFICATION_TYPE":"U","NORAD_CAT_ID":47274,"ELEMENT_SET_NO":999,"REV_AT_EPOCH":26213,"BSTAR":-0.0009718,"MEAN_MOTION_DOT":-3.37e-06,"MEAN_MOTION_DDOT":0.0},{"OBJECT_NAME":"ONEWEB-0129","OBJECT_ID":"2020-100T","EPOCH":"2026-05-28T06:21:23.853024","MEAN_MOTION":13.12440887,"ECCENTRICITY":0.000137,"INCLINATION":87.8956,"RA_OF_ASC_NODE":354.619,"ARG_OF_PERICENTER":126.2207,"MEAN_ANOMALY":233.9048,"EPHEMERIS_TYPE":0,"CLASSIFICATION_TYPE":"U","NORAD_CAT_ID":47275,"ELEMENT_SET_NO":999,"REV_AT_EPOCH":26206,"BSTAR":0.00073627,"MEAN_MOTION_DOT":2.78e-06,"MEAN_MOTION_DDOT":0.0},{"OBJECT_NAME":"ONEWEB-0130","OBJECT_ID":"2020-100U","EPOCH":"2026-05-28T03:20:52.190016","MEAN_MOTION":13.12442464,"ECCENTRICITY":0.0001664,"INCLINATION":87.8958,"RA_OF_ASC_NODE":354.6389,"ARG_OF_PERICENTER":86.4565,"MEAN_ANOMALY":273.6753,"EPHEMERIS_TYPE":0,"CLASSIFICATION_TYPE":"U","NORAD_CAT_ID":47276,"ELEMENT_SET_NO":999,"REV_AT_EPOCH":26201,"BSTAR":-0.0011303,"MEAN_MOTION_DOT":-3.94e-06,"MEAN_MOTION_DDOT":0.0},{"OBJECT_NAME":"ONEWEB-0131","OBJECT_ID":"2020-100V","EPOCH":"2026-05-28T06:55:32.846304","MEAN_MOTION":13.12442772,"ECCENTRICITY":0.0001732,"INCLINATION":87.8944,"RA_OF_ASC_NODE":354.6296,"ARG_OF_PERICENTER":85.669,"MEAN_ANOMALY":274.4636,"EPHEMERIS_TYPE":0,"CLASSIFICATION_TYPE":"U","NORAD_CAT_ID":47277,"ELEMENT_SET_NO":999,"REV_AT_EPOCH":26207,"BSTAR":-0.0009781800000000002,"MEAN_MOTION_DOT":-3.39e-06,"MEAN_MOTION_DDOT":0.0},{"OBJECT_NAME":"ONEWEB-0132","OBJECT_ID":"2020-100W","EPOCH":"2026-05-28T02:07:42.021120","MEAN_MOTION":13.12443293,"ECCENTRICITY":0.0001756,"INCLINATION":87.8949,"RA_OF_ASC_NODE":354.6707,"ARG_OF_PERICENTER":83.767,"MEAN_ANOMALY":276.3659,"EPHEMERIS_TYPE":0,"CLASSIFICATION_TYPE":"U","NORAD_CAT_ID":47278,"ELEMENT_SET_NO":999,"REV_AT_EPOCH":26194,"BSTAR":0.00052623,"MEAN_MOTION_DOT":2.02e-06,"MEAN_MOTION_DDOT":0.0},{"OBJECT_NAME":"ONEWEB-0133","OBJECT_ID":"2020-100X","EPOCH":"2026-05-28T02:31:53.760576","MEAN_MOTION":13.12442623,"ECCENTRICITY":0.0001724,"INCLINATION":87.8962,"RA_OF_ASC_NODE":354.6413,"ARG_OF_PERICENTER":81.2553,"MEAN_ANOMALY":278.8771,"EPHEMERIS_TYPE":0,"CLASSIFICATION_TYPE":"U","NORAD_CAT_ID":47279,"ELEMENT_SET_NO":999,"REV_AT_EPOCH":26210,"BSTAR":0.0010943,"MEAN_MOTION_DOT":4.06e-06,"MEAN_MOTION_DDOT":0.0},{"OBJECT_NAME":"ONEWEB-0134","OBJECT_ID":"2020-100Y","EPOCH":"2026-05-28T01:48:10.073376","MEAN_MOTION":13.12444341,"ECCENTRICITY":0.0001491,"INCLINATION":87.8962,"RA_OF_ASC_NODE":354.6442,"ARG_OF_PERICENTER":84.9783,"MEAN_ANOMALY":275.1516,"EPHEMERIS_TYPE":0,"CLASSIFICATION_TYPE":"U","NORAD_CAT_ID":47280,"ELEMENT_SET_NO":999,"REV_AT_EPOCH":26207,"BSTAR":-0.00045172,"MEAN_MOTION_DOT":-1.5e-06,"MEAN_MOTION_DDOT":0.0},{"OBJECT_NAME":"ONEWEB-0135","OBJECT_ID":"2020-100Z","EPOCH":"2026-05-28T06:36:02.585952","MEAN_MOTION":13.1244208,"ECCENTRICITY":0.0001505,"INCLINATION":87.8948,"RA_OF_ASC_NODE":354.6301,"ARG_OF_PERICENTER":80.8216,"MEAN_ANOMALY":279.3083,"EPHEMERIS_TYPE":0,"CLASSIFICATION_TYPE":"U","NORAD_CAT_ID":47281,"ELEMENT_SET_NO":999,"REV_AT_EPOCH":26212,"BSTAR":-0.00011878,"MEAN_MOTION_DOT":-3e-07,"MEAN_MOTION_DDOT":0.0}]